     2.10           N: GPS NAV DATA                         RINEX VERSION / TYPE
teqc  2016Nov7      KASI/KOREA          20200706 00:17:51UTCPGM / RUN BY / DATE
    18                                                      LEAP SECONDS
Linux 2.4.20-8|Pentium IV|gcc|Linux|486/DX+                 COMMENT
    4.6566D-09  1.4901D-08 -5.9605D-08 -1.1921D-07          ION ALPHA
    8.1920D+04  8.1920D+04 -6.5536D+04 -5.2429D+05          ION BETA
    3.725290298462D-09 9.769962616701D-15   319488     2113 DELTA-UTC: A0,A1,T,W
                                                            END OF HEADER
 8 20  7  5 23 59 44.0-3.997096791863D-05-1.364242052659D-12 0.000000000000D+00
    1.000000000000D+01 9.809375000000D+01 4.330894684862D-09 1.193754348203D+00
    5.105510354042D-06 5.350365769118D-03 1.681968569756D-06 5.153690097809D+03
    8.638400000000D+04 3.352761268616D-08 1.253695886289D+00 1.322478055954D-07
    9.693089609347D-01 3.510000000000D+02-5.898015952610D-02-8.210341993700D-09
    2.446530479243D-10 1.000000000000D+00 2.113000000000D+03 0.000000000000D+00
    2.000000000000D+00 0.000000000000D+00 5.122274160385D-09 1.000000000000D+01
    7.921800000000D+04 4.000000000000D+00
27 20  7  6  0  0  0.0-3.384728915989D-04-9.663381206337D-12 0.000000000000D+00
    7.400000000000D+01 9.665625000000D+01 4.159458972448D-09 1.041581369679D+00
    4.949048161507D-06 8.310569450259D-03 2.177432179451D-06 5.153669769287D+03
    8.640000000000D+04-6.146728992462D-08 1.268308205488D+00 1.080334186554D-07
    9.777399128948D-01 3.457187500000D+02 5.787701045323D-01-8.221771041194D-09
    1.964367538078D-10 1.000000000000D+00 2.113000000000D+03 0.000000000000D+00
    2.000000000000D+00 0.000000000000D+00 1.862645149231D-09 7.400000000000D+01
    7.921800000000D+04 4.000000000000D+00
30 20  7  6  0  0  0.0-2.561067230999D-04-7.730704965070D-12 0.000000000000D+00
    5.300000000000D+01-1.831250000000D+01 5.163429363273D-09-1.871607417333D+00
   -1.054257154465D-06 4.735284135677D-03 7.282942533493D-06 5.153617717743D+03
    8.640000000000D+04 1.862645149231D-08-7.916235864142D-01-5.029141902924D-08
    9.381523168497D-01 2.265312500000D+02-2.832746886341D+00-8.155339702633D-09
   -6.035965707914D-10 1.000000000000D+00 2.113000000000D+03 0.000000000000D+00
    2.000000000000D+00 0.000000000000D+00 3.725290298462D-09 5.300000000000D+01
    8.431200000000D+04 4.000000000000D+00
 9 20  7  6  0  0  0.0-2.486114390194D-04-6.593836587854D-12 0.000000000000D+00
    5.100000000000D+01 1.943750000000D+01 5.056282043014D-09 1.427294250980D+00
    8.493661880493D-07 1.538354321383D-03 6.496906280518D-06 5.153691539764D+03
    8.640000000000D+04-2.235174179077D-08-1.887998306982D+00-5.587935447693D-09
    9.523521326490D-01 2.477500000000D+02 1.794196877490D+00-8.117838140543D-09
    3.925163498815D-10 1.000000000000D+00 2.113000000000D+03 0.000000000000D+00
    2.000000000000D+00 0.000000000000D+00 1.396983861923D-09 5.100000000000D+01
    7.921800000000D+04 4.000000000000D+00
 7 20  7  6  0  0  0.0-3.205686807632D-04-8.753886504564D-12 0.000000000000D+00
    8.100000000000D+01-1.587500000000D+01 4.781627745417D-09-1.822082888792D+00
   -9.443610906601D-07 1.407091156580D-02 7.053837180138D-06 5.153648286819D+03
    8.640000000000D+04 1.676380634308D-07-8.137099965047D-01-1.471489667892D-07
    9.528316976762D-01 2.376562500000D+02-2.382822487035D+00-7.822825852097D-09
   -5.300220775470D-10 1.000000000000D+00 2.113000000000D+03 0.000000000000D+00
    2.000000000000D+00 0.000000000000D+00-1.117587089539D-08 8.100000000000D+01
    7.957800000000D+04 4.000000000000D+00
11 20  7  5 23 59 44.0-2.292622812092D-04 1.057287590811D-11 0.000000000000D+00
    1.100000000000D+01-3.321875000000D+01 5.909889027743D-09-1.601562927662D+00
   -1.272186636925D-06 1.606508495752D-02-2.104789018631D-07 5.153714189529D+03
    8.638400000000D+04-2.738088369370D-07 1.847300271265D+00 2.179294824600D-07
    9.128158162713D-01 3.618750000000D+02 2.002214004867D+00-9.066449082568D-09
    6.035965707914D-11 1.000000000000D+00 2.113000000000D+03 0.000000000000D+00
    2.000000000000D+00 0.000000000000D+00-1.257285475731D-08 1.100000000000D+01
    8.322600000000D+04 4.000000000000D+00
 1 20  7  6  0  0  0.0 2.182694151998D-05 5.229594535194D-12 0.000000000000D+00
    3.800000000000D+01-1.125937500000D+02 4.257677349352D-09-1.083670521993D+00
   -5.649402737618D-06 1.002960058395D-02 3.077089786530D-06 5.153706386566D+03
    8.640000000000D+04 1.676380634308D-07 2.324592100820D+00 9.313225746155D-08
    9.807127335933D-01 3.268125000000D+02 8.020790253537D-01-8.122481191087D-09
   -1.525063525017D-10 1.000000000000D+00 2.113000000000D+03 0.000000000000D+00
    2.000000000000D+00 0.000000000000D+00 5.122274160385D-09 3.800000000000D+01
    8.436600000000D+04 4.000000000000D+00
21 20  7  6  0  0  0.0 2.017477527261D-05 4.661160346586D-12 0.000000000000D+00
    2.700000000000D+01-1.075937500000D+02 4.710553356312D-09 2.773466745222D+00
   -5.738809704781D-06 2.381606062409D-02 1.281499862671D-06 5.155116445541D+03
    8.640000000000D+04 4.321336746216D-07 2.249479315203D+00 1.303851604462D-08
    9.536047840498D-01 3.502187500000D+02-1.316243498825D+00-8.029977337931D-09
   -2.264380034803D-10 1.000000000000D+00 2.113000000000D+03 0.000000000000D+00
    2.000000000000D+00 0.000000000000D+00-1.024454832077D-08 2.700000000000D+01
    7.921800000000D+04 4.000000000000D+00
16 20  7  6  0  0  0.0-1.790854148567D-04-4.774847184308D-12 0.000000000000D+00
    2.700000000000D+01 1.029375000000D+02 3.670867192067D-09 1.900368547692D+00
    5.288049578667D-06 1.144553965423D-02 1.060217618942D-05 5.153795400620D+03
    8.640000000000D+04-1.937150955200D-07 3.113389439224D-01-2.235174179077D-08
    9.783836217193D-01 1.876250000000D+02 6.343392086942D-01-7.581744381514D-09
   -1.850077063136D-10 1.000000000000D+00 2.113000000000D+03 0.000000000000D+00
    2.000000000000D+00 0.000000000000D+00-1.071020960808D-08 2.700000000000D+01
    7.921800000000D+04 4.000000000000D+00
 8 20  7  6  2  0  0.0-3.998028114438D-05-1.364242052659D-12 0.000000000000D+00
    1.100000000000D+01 1.001875000000D+02 4.286607125821D-09 2.245989352963D+00
    5.178153514862D-06 5.350423394702D-03 2.246350049973D-06 5.153692741394D+03
    9.360000000000D+04-2.607703208923D-08 1.253636790250D+00 9.313225746155D-08
    9.693105803850D-01 3.403437500000D+02-5.871332619428D-02-8.193198422458D-09
    2.242950570751D-10 1.000000000000D+00 2.113000000000D+03 0.000000000000D+00
    2.000000000000D+00 0.000000000000D+00 5.122274160385D-09 1.100000000000D+01
    8.641800000000D+04 4.000000000000D+00
 7 20  7  6  2  0  0.0-3.206320106983D-04-8.753886504564D-12 0.000000000000D+00
    8.200000000000D+01-1.737500000000D+01 4.985207653909D-09-7.718577988841D-01
   -9.573996067047D-07 1.407120097429D-02 6.861984729767D-06 5.153649095535D+03
    9.360000000000D+04 1.341104507446D-07-8.137662222981D-01 3.036111593246D-07
    9.528256719166D-01 2.417500000000D+02-2.382849441301D+00-8.225699776270D-09
   -7.078866291766D-10 1.000000000000D+00 2.113000000000D+03 0.000000000000D+00
    2.000000000000D+00 0.000000000000D+00-1.117587089539D-08 8.200000000000D+01
    8.641800000000D+04 4.000000000000D+00
 1 20  7  6  2  0  0.0 2.186466008425D-05 5.229594535194D-12 0.000000000000D+00
    4.000000000000D+01-1.017187500000D+02 4.169816546739D-09-3.346207277822D-02
   -5.276873707771D-06 1.003119500820D-02 3.065913915634D-06 5.153709474564D+03
    9.360000000000D+04 1.862645149231D-08 2.324533045743D+00 1.080334186554D-07
    9.807111302351D-01 3.341875000000D+02 8.020290081846D-01-8.233557246422D-09
   -1.560779298437D-10 1.000000000000D+00 2.113000000000D+03 0.000000000000D+00
    2.000000000000D+00 0.000000000000D+00 5.122274160385D-09 4.000000000000D+01
    8.641800000000D+04 4.000000000000D+00
16 20  7  6  2  0  0.0-1.791194081306D-04-4.774847184308D-12 0.000000000000D+00
    4.000000000000D+01 1.028125000000D+02 3.655866567231D-09 2.950542242362D+00
    5.217269062996D-06 1.144667633343D-02 1.091323792934D-05 5.153792785645D+03
    9.360000000000D+04 1.862645149231D-09 3.112849680970D-01-1.043081283569D-07
    9.783832896369D-01 1.773437500000D+02 6.342666040699D-01-7.386021943175D-09
   -1.639353999960D-10 1.000000000000D+00 2.113000000000D+03 0.000000000000D+00
    2.000000000000D+00 0.000000000000D+00-1.071020960808D-08 4.000000000000D+01
    8.641800000000D+04 4.000000000000D+00
27 20  7  6  2  0  0.0-3.385422751307D-04-9.663381206337D-12 0.000000000000D+00
    8.700000000000D+01 1.041250000000D+02 4.131600669180D-09 2.091853998573D+00
    5.319714546204D-06 8.310985867865D-03 2.345070242882D-06 5.153668331146D+03
    9.360000000000D+04-1.750886440277D-07 1.268248710072D+00-9.313225746155D-09
    9.777418044479D-01 3.421875000000D+02 5.786783415328D-01-8.129267188037D-09
    2.735828243942D-10 1.000000000000D+00 2.113000000000D+03 0.000000000000D+00
    2.800000000000D+00 0.000000000000D+00 1.862645149231D-09 8.700000000000D+01
    8.641800000000D+04 4.000000000000D+00
11 20  7  6  1 59 44.0-2.291859127581D-04 1.057287590811D-11 0.000000000000D+00
    5.200000000000D+01-2.212500000000D+01 5.810956335370D-09-5.513104299837D-01
   -1.316890120506D-06 1.606612955220D-02 7.450580596924D-09 5.153717479706D+03
    9.358400000000D+04-2.216547727585D-07 1.847233309116D+00-6.519258022308D-08
    9.128161922412D-01 3.550000000000D+02 2.002127316731D+00-9.242170687792D-09
    1.500062483624D-10 1.000000000000D+00 2.113000000000D+03 0.000000000000D+00
    2.000000000000D+00 0.000000000000D+00-1.257285475731D-08 5.200000000000D+01
    8.641800000000D+04 4.000000000000D+00
 9 20  7  6  2  0  0.0-2.486589364707D-04-6.593836587854D-12 0.000000000000D+00
    5.200000000000D+01 2.296875000000D+01 5.126999274385D-09 2.477152893075D+00
    1.227483153343D-06 1.538152922876D-03 6.385147571564D-06 5.153692531586D+03
    9.360000000000D+04 3.352761268616D-08-1.888057239174D+00-7.264316082001D-08
    9.523548609912D-01 2.490000000000D+02 1.794512194853D+00-8.179269270825D-09
    4.378753821244D-10 1.000000000000D+00 2.113000000000D+03 0.000000000000D+00
    2.000000000000D+00 0.000000000000D+00 1.396983861923D-09 5.200000000000D+01
    8.644200000000D+04 4.000000000000D+00
21 20  7  6  2  0  0.0 2.020783722401D-05 4.661160346586D-12 0.000000000000D+00
    2.800000000000D+01-1.042812500000D+02 4.520545441720D-09-2.460424138107D+00
   -5.027279257774D-06 2.381663571578D-02 7.171183824539D-07 5.155115312576D+03
    9.360000000000D+04 2.644956111908D-07 2.249420754592D+00 2.440065145493D-07
    9.536041915680D-01 3.521562500000D+02-1.316236931786D+00-7.978546624206D-09
   -4.107313943255D-11 1.000000000000D+00 2.113000000000D+03 0.000000000000D+00
    2.000000000000D+00 0.000000000000D+00-1.024454832077D-08 2.800000000000D+01
    8.644800000000D+04 4.000000000000D+00
30 20  7  6  2  0  0.0-2.561626024544D-04-7.730704965070D-12 0.000000000000D+00
    5.700000000000D+01-1.840625000000D+01 5.219503127542D-09-8.214312825158D-01
   -1.111999154091D-06 4.735401831567D-03 7.156282663345D-06 5.153617383957D+03
    9.360000000000D+04 1.136213541031D-07-7.916820490094D-01 5.587935447693D-09
    9.381476135680D-01 2.292500000000D+02-2.832703044149D+00-8.219270937054D-09
   -6.660991742757D-10 1.000000000000D+00 2.113000000000D+03 0.000000000000D+00
    2.000000000000D+00 0.000000000000D+00 3.725290298462D-09 5.700000000000D+01
    8.644800000000D+04 4.000000000000D+00
